CCSDS_OMM_VERS = 3.0
CREATION_DATE  = 2020-065T16:00:00
ORIGINATOR     = NOAA

OBJECT_NAME    = GOES 9
OBJECT_ID      = 1995-025A
CENTER_NAME    = EARTH
REF_FRAME      = TEME
TIME_SYSTEM    = UTC
MEAN_ELEMENT_THEORY = SGP/SGP4


EPOCH             = 2020-064T10:34:41.4264
MEAN_MOTION       = 1.00273272    [rev/day]
ECCENTRICITY      = 0.0005013
INCLINATION       =   3.0539      [deg]
RA_OF_ASC_NODE    =  81.7939      [deg]
ARG_OF_PERICENTER = 249.2363      [deg]
MEAN_ANOMALY      = 150.1602      [deg]
GM                = 398600.8      [km**3/s**2]
EPHEMERIS_TYPE    = 0
CLASSIFICATION_TYPE = U
NORAD_CAT_ID   = 23581
ELEMENT_SET_NO = 0925
REV_AT_EPOCH      = 4316
BSTAR             = 0.0001        [1/ER]
MEAN_MOTION_DOT   = -0.00000113   [rev/day**2]
MEAN_MOTION_DDOT  = 0.0           [rev/day**3]

USER_DEFINED_EARTH_MODEL = WGS-84
